OBJECT_NAME,OBJECT_ID,EPOCH,MEAN_MOTION,ECCENTRICITY,INCLINATION,RA_OF_ASC_NODE,ARG_OF_PERICENTER,MEAN_ANOMALY,EPHEMERIS_TYPE,CLASSIFICATION_TYPE,NORAD_CAT_ID,ELEMENT_SET_NO,REV_AT_EPOCH,BSTAR,MEAN_MOTION_DOT,MEAN_MOTION_DDOT
ASTRO-H (HITOMI),2016-012A,2026-06-02T07:09:10.946304,15.10444105,.00094747,30.9972,170.3433,103.6260,256.5434,0,U,41337,999,56503,.13655145E-3,.2399E-4,0
HXMT (HUIYAN),2017-034A,2026-06-05T03:53:42.682848,15.18383642,.0030232,43.0138,249.9961,67.6505,292.7543,0,U,42758,999,49583,.28147E-3,.572E-4,0
SAOCOM 1A,2018-076A,2026-06-05T04:28:49.450080,14.82163283,.0001515,97.8880,343.1096,75.6664,284.4718,0,U,43641,999,41432,-.93615E-5,-.127E-5,0
H-2A R/B,2018-084L,2026-06-04T05:44:20.032800,15.44635255,.00245616,98.8590,31.3044,83.7841,276.6200,0,U,43682,999,41912,.42717046E-3,.20027E-3,0
SAOCOM 1B,2020-059A,2026-06-05T03:36:37.723968,14.82161844,.0001492,97.8885,342.1681,81.3389,278.7993,0,U,46265,999,31170,.90299E-4,.667E-5,0
CSS (TIANHE),2021-035A,2026-06-05T01:46:04.269792,15.60275999,.0009569,41.4694,35.6942,344.8796,15.1755,0,U,48274,999,29127,.31558E-3,.26328E-3,0
COSMOS 2550,2021-056A,2026-06-03T06:21:27.029088,15.33822322,.00082078,67.1411,142.0174,269.6582,90.3631,0,U,48865,999,27658,.18579141E-3,.5924E-4,0
CZ-2C R/B,2022-058K,2026-06-03T16:11:44.748672,15.60905044,.00333564,50.1849,233.7798,210.9387,148.9621,0,U,52794,999,22353,.46258954E-3,.40279E-3,0
CZ-2C R/B,2022-132E,2026-06-04T23:38:20.189760,15.70074527,.0017152,97.2905,162.4770,121.9351,238.3582,0,U,54039,999,20403,.49482E-3,.60251E-3,0
GSLV R/B,2022-138AN,2026-06-05T00:29:37.254048,14.97201238,.0020806,87.3795,137.0700,186.5776,173.5186,0,U,54149,999,19699,.29652E-3,.3471E-4,0
XRISM,2023-137A,2026-06-05T02:42:59.838048,15.12358150,.0007861,31.0025,77.8042,203.4636,156.5645,0,U,57800,999,15103,.3133E-3,.5671E-4,0
ACS3,2024-077B,2026-06-05T01:46:18.468768,13.93538870,.0044349,97.1693,77.5658,65.8715,294.7080,0,U,59588,999,10635,.38618E-1,.51367E-3,0
CZ-8A R/B,2025-231K,2026-06-05T02:29:12.609024,14.30151590,.0116474,50.0034,90.7245,181.4528,178.6065,0,U,66004,999,3321,.4353E-4,-.42E-6,0
SZ-21 MODULE,2025-246C,2026-06-01T22:35:51.528768,15.75039202,.00071014,41.4749,42.1841,261.1371,98.8669,0,U,66515,999,3133,.30884922E-3,.47427E-3,0
